{"type":"FeatureCollection","features":[{"type":"Feature","id":"NLRWS_0005415104","geometry":{"type":"LineString","coordinates":[[5.13314,52.06012],[5.14114,52.09814],[5.14914,52.11912]]},"properties":{"id":"NLRWS_0005415104","cat":"file","sub":"stationaryTraffic","sev":2,"title":"A27 · Lunetten → Utrecht-Noord","road":"A27","roadType":"A","prov":"Utrecht","start":"2026-09-09T11:41Z","prob":"certain","src":"Rijkswaterstaat / NDW","imp":"hinder"}},{"type":"Feature","id":"NLRWS_0005415110","geometry":{"type":"LineString","coordinates":[[5.34214,52.13012],[5.30014,52.11214],[5.26014,52.09512],[5.22014,52.08012]]},"properties":{"id":"NLRWS_0005415110","cat":"file","sub":"slowTraffic","sev":1,"title":"A28 · vanuit Amersfoort","road":"A28","roadType":"A","prov":"Utrecht","start":"2026-09-09T11:28Z","prob":"certain","src":"Rijkswaterstaat / NDW","imp":"hinder"}},{"type":"Feature","id":"NLRWS_0005415133","geometry":{"type":"LineString","coordinates":[[4.53214,51.82012],[4.51014,51.85214],[4.49014,51.88512],[4.47514,51.91012]]},"properties":{"id":"NLRWS_0005415133","cat":"file","sub":"stationaryTraffic","sev":3,"title":"A16 · richting Rotterdam","road":"A16","roadType":"A","prov":"Zuid-Holland","start":"2026-09-09T11:13Z","prob":"certain","src":"Rijkswaterstaat / NDW","imp":"hinder"}},{"type":"Feature","id":"NDW06_2300001","geometry":{"type":"Point","coordinates":[5.644,51.42329]},"properties":{"id":"NDW06_2300001","cat":"incident","sub":"accident","sev":3,"title":"A67 · ongeval bij Geldrop","road":"A67","roadType":"A","gemeente":"Geldrop-Mierlo","woonplaats":"Geldrop","prov":"Noord-Brabant","start":"2026-09-09T11:37Z","prob":"certain","src":"Rijkswaterstaat / NDW","imp":"hinder","lc":1}},{"type":"Feature","id":"NDW06_2300002","geometry":{"type":"Point","coordinates":[6.14214,52.24512]},"properties":{"id":"NDW06_2300002","cat":"incident","sub":"brokenDownVehicle","sev":1,"title":"A1 · pechgeval bij Deventer","road":"A1","roadType":"A","gemeente":"Deventer","woonplaats":"Deventer","prov":"Overijssel","start":"2026-09-09T11:52Z","prob":"certain","src":"Rijkswaterstaat / NDW","imp":"hinder"}},{"type":"Feature","id":"NDW06_2300003","geometry":{"type":"Point","coordinates":[5.92014,52.55012]},"properties":{"id":"NDW06_2300003","cat":"incident","sub":"generalObstruction","sev":2,"title":"N50 · obstakel op de weg bij Kampen","road":"N50","roadType":"N","gemeente":"Kampen","woonplaats":"Kampen","prov":"Overijssel","start":"2026-09-09T11:46Z","prob":"certain","src":"Rijkswaterstaat / NDW","imp":"hinder","lc":1}},{"type":"Feature","id":"NDW06_2300004","geometry":{"type":"Point","coordinates":[4.40214,51.92312]},"properties":{"id":"NDW06_2300004","cat":"incident","sub":"vehicleObstruction","sev":2,"title":"A20 · voertuig op de weg bij Schiedam","road":"A20","roadType":"A","gemeente":"Schiedam","woonplaats":"Schiedam","prov":"Zuid-Holland","start":"2026-09-09T11:49Z","prob":"certain","src":"Rijkswaterstaat / NDW","imp":"hinder","lc":1}},{"type":"Feature","id":"BMS01_NLCRU002020472000143_569427145","geometry":{"type":"Point","coordinates":[4.63686,52.33835]},"properties":{"id":"BMS01_NLCRU002020472000143_569427145","cat":"brug","sub":"bridgeSwingInOperation","sev":2,"title":"N201 · Cruquiusbrug","road":"N201","roadType":"N","gemeente":"Haarlemmermeer","woonplaats":"Cruquius","prov":"Noord-Holland","start":"2026-09-09T11:55Z","end":"2026-09-09T12:04Z","prob":"certain","src":"Rijkswaterstaat / NDW","imp":"dicht"}},{"type":"Feature","id":"BMS01_NLALK002340557700383_569427211","geometry":{"type":"Point","coordinates":[4.76806,52.61654]},"properties":{"id":"BMS01_NLALK002340557700383_569427211","cat":"brug","sub":"bridgeSwingInOperation","sev":2,"title":"N242 · Leeghwaterbrug","road":"N242","roadType":"N","gemeente":"Alkmaar","woonplaats":"Alkmaar","prov":"Noord-Holland","start":"2026-09-09T11:58Z","end":"2026-09-09T12:05Z","prob":"certain","src":"Rijkswaterstaat / NDW","imp":"dicht"}}]}