{"type":"FeatureCollection","features":[{"type":"Feature","id":"NDW03_2100001","geometry":{"type":"LineString","coordinates":[[4.94063,52.20115],[4.97158,52.16542],[5.00214,52.13018],[5.02891,52.09984]]},"properties":{"id":"NDW03_2100001","cat":"werk","sub":"resurfacingWork","sev":3,"title":"A2 · Vinkeveen → Holendrecht","road":"A2","roadType":"A","gemeente":"De Ronde Venen","prov":"Utrecht","start":"2026-09-09T08:00Z","end":"2026-09-09T21:00Z","hind":"B","prob":"certain","src":"Rijkswaterstaat Midden-Nederland"}},{"type":"Feature","id":"NDW03_2100002","geometry":{"type":"MultiLineString","coordinates":[[[5.31402,51.66218],[5.35081,51.61234],[5.39012,51.56087]],[[5.39012,51.55987],[5.35081,51.61134],[5.31402,51.66118]]]},"properties":{"id":"NDW03_2100002","cat":"afsluiting","sub":"carriagewayClosures","sev":4,"title":"A2 · rijbaan dicht bij Den Bosch","road":"A2","roadType":"A","gemeente":"'s-Hertogenbosch","woonplaats":"'s-Hertogenbosch","prov":"Noord-Brabant","start":"2026-09-09T10:30Z","end":"2026-09-10T02:00Z","closed":true,"hind":"A","prob":"certain","src":"Rijkswaterstaat Zuid-Nederland"}},{"type":"Feature","id":"NDW03_2100003","geometry":{"type":"LineString","coordinates":[[4.51092,52.05781],[4.60318,52.04213],[4.69874,52.02651],[4.78201,52.01187]]},"properties":{"id":"NDW03_2100003","cat":"werk","sub":"laneClosures","sev":2,"title":"A12 · Zoetermeer → Gouda","road":"A12","roadType":"A","gemeente":"Zoetermeer","woonplaats":"Zoetermeer","prov":"Zuid-Holland","start":"2026-09-03T12:00Z","end":"2026-09-21T12:00Z","hind":"C","prob":"certain","src":"Rijkswaterstaat West-Nederland Zuid"}},{"type":"Feature","id":"NDW03_2100004","geometry":{"type":"MultiLineString","coordinates":[[[5.94012,51.96214],[6.01238,51.95012],[6.08512,51.94318]],[[6.08512,51.94218],[6.01238,51.94912],[5.94012,51.96114]]]},"properties":{"id":"NDW03_2100004","cat":"werk","sub":"narrowLanes","sev":2,"title":"A12 · versmalde rijstroken bij Duiven","road":"A12","roadType":"A","gemeente":"Duiven","woonplaats":"Duiven","prov":"Gelderland","start":"2026-09-07T12:00Z","end":"2026-09-29T12:00Z","hind":"D","prob":"certain","src":"Rijkswaterstaat Oost-Nederland"}},{"type":"Feature","id":"NDW03_2100005","geometry":{"type":"LineString","coordinates":[[5.13214,52.05412],[5.14018,52.09231],[5.15102,52.12874]]},"properties":{"id":"NDW03_2100005","cat":"werk","sub":"laneClosures","sev":3,"title":"A27 · Lunetten → Utrecht-Noord","road":"A27","roadType":"A","gemeente":"Utrecht","woonplaats":"Utrecht","prov":"Utrecht","start":"2026-09-09T11:10Z","end":"2026-09-09T18:00Z","hind":"B","prob":"certain","src":"Rijkswaterstaat Midden-Nederland"}},{"type":"Feature","id":"NDW03_2100006","geometry":{"type":"LineString","coordinates":[[4.83012,51.63218],[4.86214,51.68012],[4.89312,51.72514]]},"properties":{"id":"NDW03_2100006","cat":"werk","sub":"speedRestrictionInOperation","sev":1,"title":"A27 · snelheidsbeperking bij Oosterhout","road":"A27","roadType":"A","gemeente":"Oosterhout","woonplaats":"Oosterhout","prov":"Noord-Brabant","start":"2026-09-09T01:00Z","end":"2026-09-13T12:00Z","hind":"D","prob":"certain","src":"Rijkswaterstaat Zuid-Nederland"}},{"type":"Feature","id":"NDW03_2100007","geometry":{"type":"LineString","coordinates":[[5.03214,52.92814],[5.14012,52.98218],[5.25314,53.03012],[5.34112,53.06214]]},"properties":{"id":"NDW03_2100007","cat":"werk","sub":"maintenanceWork","sev":2,"title":"A7 · Afsluitdijk","road":"A7","roadType":"A","gemeente":"Súdwest-Fryslân","prov":"Friesland","start":"2026-08-20T12:00Z","end":"2026-11-08T12:00Z","hind":"C","prob":"certain","src":"Rijkswaterstaat Noord-Nederland"}},{"type":"Feature","id":"NDW03_2100008","geometry":{"type":"LineString","coordinates":[[6.48214,53.19812],[6.55012,53.21014],[6.61312,53.22218]]},"properties":{"id":"NDW03_2100008","cat":"afsluiting","sub":"roadClosed","sev":4,"title":"A7 · afrit dicht bij Groningen","road":"A7","roadType":"A","gemeente":"Groningen","woonplaats":"Groningen","prov":"Groningen","start":"2026-09-09T11:30Z","end":"2026-09-09T23:00Z","closed":true,"hind":"B","prob":"certain","src":"Rijkswaterstaat Noord-Nederland"}},{"type":"Feature","id":"NDW03_2100009","geometry":{"type":"LineString","coordinates":[[3.71214,51.72012],[3.74012,51.78214]]},"properties":{"id":"NDW03_2100009","cat":"werk","sub":"laneClosures","sev":2,"title":"N57 · Serooskerke","road":"N57","roadType":"N","gemeente":"Veere","woonplaats":"Serooskerke","prov":"Zeeland","start":"2026-09-09T09:00Z","end":"2026-09-12T12:00Z","hind":"C","prob":"probable","src":"Provincie Zeeland"}},{"type":"Feature","id":"NDW03_2100010","geometry":{"type":"LineString","coordinates":[[4.8781,52.37012],[4.87412,52.36514],[4.87102,52.36012]]},"properties":{"id":"NDW03_2100010","cat":"werk","sub":"laneClosures","sev":2,"title":"s100 · Amsterdam Nassaukade","road":"s100","roadType":"S","gemeente":"Amsterdam","woonplaats":"Amsterdam","prov":"Noord-Holland","start":"2026-09-09T05:00Z","end":"2026-10-05T12:00Z","hind":"C","prob":"probable","src":"Gemeente Amsterdam"}},{"type":"Feature","id":"NDW03_2100011","geometry":{"type":"LineString","coordinates":[[3.60214,51.50012],[3.63014,51.49214],[3.65814,51.48512]]},"properties":{"id":"NDW03_2100011","cat":"evenement","sub":"bicycleRace","sev":2,"title":"Ronde van Midden-Zeeland","road":"N287","roadType":"N","gemeente":"Middelburg","woonplaats":"Middelburg","prov":"Zeeland","start":"2026-09-09T10:00Z","end":"2026-09-09T17:00Z","closed":true,"hind":"B","prob":"certain","src":"Gemeente Middelburg"}},{"type":"Feature","id":"AND01_2100012","geometry":{"type":"LineString","coordinates":[[4.86012,52.33814],[4.89214,52.33512],[4.92314,52.33218]]},"properties":{"id":"AND01_2100012","cat":"overig","sub":"hardShoulderRunningInOperation","sev":0,"title":"A10 · spitsstrook open bij Amsterdam-Zuid","road":"A10","roadType":"A","gemeente":"Amsterdam","woonplaats":"Amsterdam","prov":"Noord-Holland","start":"2026-09-09T11:20Z","end":"2026-09-09T14:00Z","prob":"certain","src":"Rijkswaterstaat West-Nederland Noord"}},{"type":"Feature","id":"AND01_2100013","geometry":{"type":"Point","coordinates":[5.10214,52.06814]},"properties":{"id":"AND01_2100013","cat":"werk","sub":"installationWork","sev":1,"title":"Warmtenet Kanaleneiland","roadType":"lokaal","gemeente":"Utrecht","woonplaats":"Utrecht","prov":"Utrecht","start":"2026-08-28T12:00Z","end":"2026-10-19T12:00Z","hind":"D","prob":"probable","src":"Gemeente Utrecht"}},{"type":"Feature","id":"AND01_2100014","geometry":{"type":"Point","coordinates":[4.47712,51.92214]},"properties":{"id":"AND01_2100014","cat":"afsluiting","sub":"roadClosed","sev":3,"title":"Coolsingel dicht voor herinrichting","roadType":"lokaal","gemeente":"Rotterdam","woonplaats":"Rotterdam","prov":"Zuid-Holland","start":"2026-09-09T11:00Z","end":"2026-09-17T12:00Z","closed":true,"hind":"B","prob":"certain","src":"Gemeente Rotterdam"}},{"type":"Feature","id":"AND01_2100015","geometry":{"type":"Point","coordinates":[6.02214,52.72014]},"properties":{"id":"AND01_2100015","cat":"werk","sub":"maintenanceWork","sev":1,"title":"Herstel wegdek buiten de bebouwde kom","roadType":"lokaal","start":"2026-09-09T07:00Z","end":"2026-09-10T18:00Z","hind":"E","prob":"probable","src":"Onbekende wegbeheerder"}},{"type":"Feature","id":"AND01_2100100","geometry":{"type":"Point","coordinates":[4.89087,52.36923]},"properties":{"id":"AND01_2100100","cat":"werk","sub":"maintenanceWork","sev":1,"title":"Vondelstraat, Amsterdam","roadType":"lokaal","gemeente":"Amsterdam","woonplaats":"Amsterdam","prov":"Noord-Holland","start":"2026-09-09T05:00Z","end":"2026-09-10T06:00Z","hind":"B","prob":"certain","src":"Gemeente Amsterdam"}},{"type":"Feature","id":"AND01_2100101","geometry":{"type":"Point","coordinates":[4.9091,52.354]},"properties":{"id":"AND01_2100101","cat":"werk","sub":"resurfacingWork","sev":2,"title":"Weesperzijde, Amsterdam","roadType":"lokaal","gemeente":"Amsterdam","woonplaats":"Amsterdam","prov":"Noord-Holland","start":"2026-09-08T22:00Z","end":"2026-09-10T15:00Z","hind":"C","prob":"probable","src":"Gemeente Amsterdam"}},{"type":"Feature","id":"AND01_2100102","geometry":{"type":"Point","coordinates":[4.47917,51.92442]},"properties":{"id":"AND01_2100102","cat":"werk","sub":"installationWork","sev":2,"title":"Goudsesingel, Rotterdam","roadType":"lokaal","gemeente":"Rotterdam","woonplaats":"Rotterdam","prov":"Zuid-Holland","start":"2026-09-08T15:00Z","end":"2026-09-11T00:00Z","hind":"D","prob":"probable","src":"Gemeente Rotterdam"}},{"type":"Feature","id":"AND01_2100103","geometry":{"type":"Point","coordinates":[4.4519,51.9166]},"properties":{"id":"AND01_2100103","cat":"werk","sub":"roadMarkingWork","sev":1,"title":"Vierambachtsstraat, Rotterdam","roadType":"lokaal","gemeente":"Rotterdam","woonplaats":"Rotterdam","prov":"Zuid-Holland","start":"2026-09-08T08:00Z","end":"2026-09-11T09:00Z","hind":"E","prob":"certain","src":"Gemeente Rotterdam"}},{"type":"Feature","id":"AND01_2100104","geometry":{"type":"Point","coordinates":[5.12762,52.08594]},"properties":{"id":"AND01_2100104","cat":"werk","sub":"treeAndVegetationCuttingWork","sev":0,"title":"Croeselaan, Utrecht","roadType":"lokaal","gemeente":"Utrecht","woonplaats":"Utrecht","prov":"Utrecht","start":"2026-09-08T01:00Z","end":"2026-09-11T18:00Z","hind":"B","prob":"probable","src":"Gemeente Utrecht"}},{"type":"Feature","id":"AND01_2100105","geometry":{"type":"Point","coordinates":[5.0979,52.0978]},"properties":{"id":"AND01_2100105","cat":"werk","sub":"maintenanceWork","sev":1,"title":"Amsterdamsestraatweg, Utrecht","roadType":"lokaal","gemeente":"Utrecht","woonplaats":"Utrecht","prov":"Utrecht","start":"2026-09-07T18:00Z","end":"2026-09-12T03:00Z","hind":"C","prob":"probable","src":"Gemeente Utrecht"}},{"type":"Feature","id":"AND01_2100106","geometry":{"type":"Point","coordinates":[4.77286,51.58656]},"properties":{"id":"AND01_2100106","cat":"werk","sub":"resurfacingWork","sev":2,"title":"Asterdkraag, Breda","roadType":"lokaal","gemeente":"Breda","woonplaats":"Breda","prov":"Noord-Brabant","start":"2026-09-07T11:00Z","end":"2026-09-12T12:00Z","hind":"D","prob":"certain","src":"Gemeente Breda"}},{"type":"Feature","id":"AND01_2100107","geometry":{"type":"Point","coordinates":[4.7621,51.5945]},"properties":{"id":"AND01_2100107","cat":"werk","sub":"installationWork","sev":2,"title":"Nieuwe Prinsenkade, Breda","roadType":"lokaal","gemeente":"Breda","woonplaats":"Breda","prov":"Noord-Brabant","start":"2026-09-07T04:00Z","end":"2026-09-12T21:00Z","hind":"E","prob":"probable","src":"Gemeente Breda"}},{"type":"Feature","id":"AND01_2100108","geometry":{"type":"Point","coordinates":[6.56807,53.21458]},"properties":{"id":"AND01_2100108","cat":"werk","sub":"roadMarkingWork","sev":1,"title":"Damsterdiep, Groningen","roadType":"lokaal","gemeente":"Groningen","woonplaats":"Groningen","prov":"Groningen","start":"2026-09-06T21:00Z","end":"2026-09-13T06:00Z","hind":"B","prob":"probable","src":"Gemeente Groningen"}},{"type":"Feature","id":"AND01_2100109","geometry":{"type":"Point","coordinates":[6.5564,53.2217]},"properties":{"id":"AND01_2100109","cat":"werk","sub":"treeAndVegetationCuttingWork","sev":0,"title":"Eendrachtskade, Groningen","roadType":"lokaal","gemeente":"Groningen","woonplaats":"Groningen","prov":"Groningen","start":"2026-09-06T14:00Z","end":"2026-09-13T15:00Z","hind":"C","prob":"certain","src":"Gemeente Groningen"}},{"type":"Feature","id":"AND01_2100110","geometry":{"type":"Point","coordinates":[4.30514,52.07667]},"properties":{"id":"AND01_2100110","cat":"werk","sub":"maintenanceWork","sev":1,"title":"Laan van Meerdervoort, Den Haag","roadType":"lokaal","gemeente":"'s-Gravenhage","woonplaats":"Den Haag","prov":"Zuid-Holland","start":"2026-09-06T07:00Z","end":"2026-09-14T00:00Z","hind":"D","prob":"probable","src":"Gemeente 's-Gravenhage"}},{"type":"Feature","id":"AND01_2100111","geometry":{"type":"Point","coordinates":[5.47468,51.44404]},"properties":{"id":"AND01_2100111","cat":"werk","sub":"resurfacingWork","sev":2,"title":"Vestdijk, Eindhoven","roadType":"lokaal","gemeente":"Eindhoven","woonplaats":"Eindhoven","prov":"Noord-Brabant","start":"2026-09-06T00:00Z","end":"2026-09-14T09:00Z","hind":"E","prob":"probable","src":"Gemeente Eindhoven"}},{"type":"Feature","id":"AND01_2100112","geometry":{"type":"Point","coordinates":[6.09444,52.5077]},"properties":{"id":"AND01_2100112","cat":"werk","sub":"installationWork","sev":2,"title":"Willemskade, Zwolle","roadType":"lokaal","gemeente":"Zwolle","woonplaats":"Zwolle","prov":"Overijssel","start":"2026-09-05T17:00Z","end":"2026-09-14T18:00Z","hind":"B","prob":"certain","src":"Gemeente Zwolle"}},{"type":"Feature","id":"AND01_2100113","geometry":{"type":"Point","coordinates":[5.69199,50.84899]},"properties":{"id":"AND01_2100113","cat":"werk","sub":"roadMarkingWork","sev":1,"title":"Wilhelminasingel, Maastricht","roadType":"lokaal","gemeente":"Maastricht","woonplaats":"Maastricht","prov":"Limburg","start":"2026-09-05T10:00Z","end":"2026-09-15T03:00Z","hind":"C","prob":"probable","src":"Gemeente Maastricht"}},{"type":"Feature","id":"AND01_2100114","geometry":{"type":"Point","coordinates":[3.62009,51.49889]},"properties":{"id":"AND01_2100114","cat":"werk","sub":"treeAndVegetationCuttingWork","sev":0,"title":"Nieuwe Havenweg, Middelburg","roadType":"lokaal","gemeente":"Middelburg","woonplaats":"Middelburg","prov":"Zeeland","start":"2026-09-05T03:00Z","end":"2026-09-15T12:00Z","hind":"D","prob":"probable","src":"Gemeente Middelburg"}},{"type":"Feature","id":"AND01_2100115","geometry":{"type":"Point","coordinates":[5.21186,52.37323]},"properties":{"id":"AND01_2100115","cat":"werk","sub":"maintenanceWork","sev":1,"title":"Spoordreef, Almere","roadType":"lokaal","gemeente":"Almere","woonplaats":"Almere","prov":"Flevoland","start":"2026-09-04T20:00Z","end":"2026-09-15T21:00Z","hind":"E","prob":"certain","src":"Gemeente Almere"}},{"type":"Feature","id":"AND01_2100116","geometry":{"type":"Point","coordinates":[6.55801,52.99103]},"properties":{"id":"AND01_2100116","cat":"werk","sub":"resurfacingWork","sev":2,"title":"Overcingellaan, Assen","roadType":"lokaal","gemeente":"Assen","woonplaats":"Assen","prov":"Drenthe","start":"2026-09-04T13:00Z","end":"2026-09-16T06:00Z","hind":"B","prob":"probable","src":"Gemeente Assen"}},{"type":"Feature","id":"AND01_2100117","geometry":{"type":"Point","coordinates":[5.89873,51.9776]},"properties":{"id":"AND01_2100117","cat":"werk","sub":"installationWork","sev":2,"title":"Velperbuitensingel, Arnhem","roadType":"lokaal","gemeente":"Arnhem","woonplaats":"Arnhem","prov":"Gelderland","start":"2026-09-04T06:00Z","end":"2026-09-16T15:00Z","hind":"C","prob":"probable","src":"Gemeente Arnhem"}},{"type":"Feature","id":"AND01_2100118","geometry":{"type":"Point","coordinates":[5.80171,53.20139]},"properties":{"id":"AND01_2100118","cat":"werk","sub":"roadMarkingWork","sev":1,"title":"Harlingerstraatweg, Leeuwarden","roadType":"lokaal","gemeente":"Leeuwarden","woonplaats":"Leeuwarden","prov":"Friesland","start":"2026-09-03T23:00Z","end":"2026-09-17T00:00Z","hind":"D","prob":"certain","src":"Gemeente Leeuwarden"}},{"type":"Feature","id":"AND01_2100119","geometry":{"type":"Point","coordinates":[5.87009,51.8449]},"properties":{"id":"AND01_2100119","cat":"werk","sub":"treeAndVegetationCuttingWork","sev":0,"title":"Graafseweg, Nijmegen","roadType":"lokaal","gemeente":"Nijmegen","woonplaats":"Nijmegen","prov":"Gelderland","start":"2026-09-03T16:00Z","end":"2026-09-17T09:00Z","hind":"E","prob":"probable","src":"Gemeente Nijmegen"}},{"type":"Feature","id":"AND01_2100120","geometry":{"type":"Point","coordinates":[5.07991,51.55071]},"properties":{"id":"AND01_2100120","cat":"werk","sub":"maintenanceWork","sev":1,"title":"Ringbaan Oost, Tilburg","roadType":"lokaal","gemeente":"Tilburg","woonplaats":"Tilburg","prov":"Noord-Brabant","start":"2026-09-03T09:00Z","end":"2026-09-17T18:00Z","hind":"B","prob":"probable","src":"Gemeente Tilburg"}},{"type":"Feature","id":"AND01_2100121","geometry":{"type":"Point","coordinates":[4.63301,52.37844]},"properties":{"id":"AND01_2100121","cat":"werk","sub":"resurfacingWork","sev":2,"title":"Zijlweg, Haarlem","roadType":"lokaal","gemeente":"Haarlem","woonplaats":"Haarlem","prov":"Noord-Holland","start":"2026-09-03T02:00Z","end":"2026-09-18T03:00Z","hind":"C","prob":"certain","src":"Gemeente Haarlem"}},{"type":"Feature","id":"AND01_2100122","geometry":{"type":"Point","coordinates":[4.89707,52.37403]},"properties":{"id":"AND01_2100122","cat":"werk","sub":"installationWork","sev":2,"title":"Vondelstraat, Amsterdam","roadType":"lokaal","gemeente":"Amsterdam","woonplaats":"Amsterdam","prov":"Noord-Holland","start":"2026-09-02T19:00Z","end":"2026-09-18T12:00Z","hind":"D","prob":"probable","src":"Gemeente Amsterdam"}},{"type":"Feature","id":"AND01_2100123","geometry":{"type":"Point","coordinates":[4.9153,52.3588]},"properties":{"id":"AND01_2100123","cat":"werk","sub":"roadMarkingWork","sev":1,"title":"Weesperzijde, Amsterdam","roadType":"lokaal","gemeente":"Amsterdam","woonplaats":"Amsterdam","prov":"Noord-Holland","start":"2026-09-02T12:00Z","end":"2026-09-18T21:00Z","hind":"E","prob":"probable","src":"Gemeente Amsterdam"}},{"type":"Feature","id":"AND01_2100124","geometry":{"type":"Point","coordinates":[4.48537,51.91962]},"properties":{"id":"AND01_2100124","cat":"werk","sub":"treeAndVegetationCuttingWork","sev":0,"title":"Goudsesingel, Rotterdam","roadType":"lokaal","gemeente":"Rotterdam","woonplaats":"Rotterdam","prov":"Zuid-Holland","start":"2026-09-02T05:00Z","end":"2026-09-19T06:00Z","hind":"B","prob":"certain","src":"Gemeente Rotterdam"}}]}