{"type":"FeatureCollection","features":[{"type":"Feature","id":"NDW03_2200100","geometry":{"type":"Point","coordinates":[4.7559,51.5873]},"properties":{"id":"NDW03_2200100","cat":"werk","sub":"installationWork","sev":2,"title":"Nieuwe Prinsenkade, Breda","roadType":"lokaal","gemeente":"Breda","woonplaats":"Breda","prov":"Noord-Brabant","start":"2026-09-10T21:00Z","end":"2026-09-13T21:00Z","hind":"E","prob":"certain","src":"Gemeente Breda"}},{"type":"Feature","id":"NDW03_2200101","geometry":{"type":"Point","coordinates":[6.56187,53.21698]},"properties":{"id":"NDW03_2200101","cat":"werk","sub":"roadMarkingWork","sev":1,"title":"Damsterdiep, Groningen","roadType":"lokaal","gemeente":"Groningen","woonplaats":"Groningen","prov":"Groningen","start":"2026-09-12T06:00Z","end":"2026-09-15T06:00Z","hind":"B","prob":"probable","src":"Gemeente Groningen"}},{"type":"Feature","id":"NDW03_2200102","geometry":{"type":"Point","coordinates":[6.5502,53.2241]},"properties":{"id":"NDW03_2200102","cat":"werk","sub":"treeAndVegetationCuttingWork","sev":0,"title":"Eendrachtskade, Groningen","roadType":"lokaal","gemeente":"Groningen","woonplaats":"Groningen","prov":"Groningen","start":"2026-09-13T15:00Z","end":"2026-09-16T15:00Z","hind":"C","prob":"probable","src":"Gemeente Groningen"}},{"type":"Feature","id":"NDW03_2200103","geometry":{"type":"Point","coordinates":[4.31444,52.07907]},"properties":{"id":"NDW03_2200103","cat":"werk","sub":"maintenanceWork","sev":1,"title":"Laan van Meerdervoort, Den Haag","roadType":"lokaal","gemeente":"'s-Gravenhage","woonplaats":"Den Haag","prov":"Zuid-Holland","start":"2026-09-15T00:00Z","end":"2026-09-18T00:00Z","hind":"D","prob":"certain","src":"Gemeente 's-Gravenhage"}},{"type":"Feature","id":"NDW03_2200104","geometry":{"type":"Point","coordinates":[5.48398,51.43684]},"properties":{"id":"NDW03_2200104","cat":"werk","sub":"resurfacingWork","sev":2,"title":"Vestdijk, Eindhoven","roadType":"lokaal","gemeente":"Eindhoven","woonplaats":"Eindhoven","prov":"Noord-Brabant","start":"2026-09-16T09:00Z","end":"2026-09-19T09:00Z","hind":"E","prob":"probable","src":"Gemeente Eindhoven"}},{"type":"Feature","id":"NDW03_2200105","geometry":{"type":"Point","coordinates":[6.08824,52.5101]},"properties":{"id":"NDW03_2200105","cat":"werk","sub":"installationWork","sev":2,"title":"Willemskade, Zwolle","roadType":"lokaal","gemeente":"Zwolle","woonplaats":"Zwolle","prov":"Overijssel","start":"2026-09-17T18:00Z","end":"2026-09-20T18:00Z","hind":"B","prob":"probable","src":"Gemeente Zwolle"}},{"type":"Feature","id":"NDW03_2200106","geometry":{"type":"Point","coordinates":[5.68579,50.85139]},"properties":{"id":"NDW03_2200106","cat":"werk","sub":"roadMarkingWork","sev":1,"title":"Wilhelminasingel, Maastricht","roadType":"lokaal","gemeente":"Maastricht","woonplaats":"Maastricht","prov":"Limburg","start":"2026-09-19T03:00Z","end":"2026-09-22T03:00Z","hind":"C","prob":"certain","src":"Gemeente Maastricht"}},{"type":"Feature","id":"NDW03_2200107","geometry":{"type":"Point","coordinates":[3.61389,51.50129]},"properties":{"id":"NDW03_2200107","cat":"werk","sub":"treeAndVegetationCuttingWork","sev":0,"title":"Nieuwe Havenweg, Middelburg","roadType":"lokaal","gemeente":"Middelburg","woonplaats":"Middelburg","prov":"Zeeland","start":"2026-09-20T12:00Z","end":"2026-09-23T12:00Z","hind":"D","prob":"probable","src":"Gemeente Middelburg"}},{"type":"Feature","id":"NDW03_2200108","geometry":{"type":"Point","coordinates":[5.22116,52.36603]},"properties":{"id":"NDW03_2200108","cat":"werk","sub":"maintenanceWork","sev":1,"title":"Spoordreef, Almere","roadType":"lokaal","gemeente":"Almere","woonplaats":"Almere","prov":"Flevoland","start":"2026-09-21T21:00Z","end":"2026-09-24T21:00Z","hind":"E","prob":"probable","src":"Gemeente Almere"}},{"type":"Feature","id":"NDW03_2200109","geometry":{"type":"Point","coordinates":[6.56731,52.99343]},"properties":{"id":"NDW03_2200109","cat":"werk","sub":"resurfacingWork","sev":2,"title":"Overcingellaan, Assen","roadType":"lokaal","gemeente":"Assen","woonplaats":"Assen","prov":"Drenthe","start":"2026-09-23T06:00Z","end":"2026-09-26T06:00Z","hind":"B","prob":"certain","src":"Gemeente Assen"}},{"type":"Feature","id":"NDW03_2200110","geometry":{"type":"Point","coordinates":[5.89253,51.98]},"properties":{"id":"NDW03_2200110","cat":"werk","sub":"installationWork","sev":2,"title":"Velperbuitensingel, Arnhem","roadType":"lokaal","gemeente":"Arnhem","woonplaats":"Arnhem","prov":"Gelderland","start":"2026-09-24T15:00Z","end":"2026-09-27T15:00Z","hind":"C","prob":"probable","src":"Gemeente Arnhem"}},{"type":"Feature","id":"NDW03_2200111","geometry":{"type":"Point","coordinates":[5.79551,53.20379]},"properties":{"id":"NDW03_2200111","cat":"werk","sub":"roadMarkingWork","sev":1,"title":"Harlingerstraatweg, Leeuwarden","roadType":"lokaal","gemeente":"Leeuwarden","woonplaats":"Leeuwarden","prov":"Friesland","start":"2026-09-26T00:00Z","end":"2026-09-29T00:00Z","hind":"D","prob":"probable","src":"Gemeente Leeuwarden"}},{"type":"Feature","id":"NDW03_2200112","geometry":{"type":"Point","coordinates":[5.86389,51.8377]},"properties":{"id":"NDW03_2200112","cat":"werk","sub":"treeAndVegetationCuttingWork","sev":0,"title":"Graafseweg, Nijmegen","roadType":"lokaal","gemeente":"Nijmegen","woonplaats":"Nijmegen","prov":"Gelderland","start":"2026-09-27T09:00Z","end":"2026-09-30T09:00Z","hind":"E","prob":"certain","src":"Gemeente Nijmegen"}},{"type":"Feature","id":"NDW03_2200113","geometry":{"type":"Point","coordinates":[5.08921,51.55311]},"properties":{"id":"NDW03_2200113","cat":"werk","sub":"maintenanceWork","sev":1,"title":"Ringbaan Oost, Tilburg","roadType":"lokaal","gemeente":"Tilburg","woonplaats":"Tilburg","prov":"Noord-Brabant","start":"2026-09-28T18:00Z","end":"2026-10-01T18:00Z","hind":"B","prob":"probable","src":"Gemeente Tilburg"}},{"type":"Feature","id":"NDW03_2200114","geometry":{"type":"Point","coordinates":[4.64231,52.38084]},"properties":{"id":"NDW03_2200114","cat":"werk","sub":"resurfacingWork","sev":2,"title":"Zijlweg, Haarlem","roadType":"lokaal","gemeente":"Haarlem","woonplaats":"Haarlem","prov":"Noord-Holland","start":"2026-09-30T03:00Z","end":"2026-10-03T03:00Z","hind":"C","prob":"probable","src":"Gemeente Haarlem"}},{"type":"Feature","id":"NDW03_2200115","geometry":{"type":"Point","coordinates":[4.89087,52.37643]},"properties":{"id":"NDW03_2200115","cat":"werk","sub":"installationWork","sev":2,"title":"Vondelstraat, Amsterdam","roadType":"lokaal","gemeente":"Amsterdam","woonplaats":"Amsterdam","prov":"Noord-Holland","start":"2026-10-01T12:00Z","end":"2026-10-04T12:00Z","hind":"D","prob":"certain","src":"Gemeente Amsterdam"}},{"type":"Feature","id":"NDW03_2200116","geometry":{"type":"Point","coordinates":[4.9091,52.3516]},"properties":{"id":"NDW03_2200116","cat":"werk","sub":"roadMarkingWork","sev":1,"title":"Weesperzijde, Amsterdam","roadType":"lokaal","gemeente":"Amsterdam","woonplaats":"Amsterdam","prov":"Noord-Holland","start":"2026-10-02T21:00Z","end":"2026-10-05T21:00Z","hind":"E","prob":"probable","src":"Gemeente Amsterdam"}},{"type":"Feature","id":"NDW03_2200001","geometry":{"type":"LineString","coordinates":[[5.19214,52.05812],[5.24012,52.05214],[5.28814,52.04612]]},"properties":{"id":"NDW03_2200001","cat":"werk","sub":"resurfacingWork","sev":3,"title":"A12 · nachtwerk tussen Bunnik en Driebergen","road":"A12","roadType":"A","gemeente":"Bunnik","woonplaats":"Bunnik","prov":"Utrecht","start":"2026-09-12T19:00Z","end":"2026-09-22T12:00Z","hind":"B","prob":"certain","src":"Rijkswaterstaat Midden-Nederland"}},{"type":"Feature","id":"NDW03_2200002","geometry":{"type":"LineString","coordinates":[[4.74214,52.33812],[4.78012,52.32914],[4.81814,52.32012]]},"properties":{"id":"NDW03_2200002","cat":"afsluiting","sub":"roadClosed","sev":4,"title":"A9 · weekendafsluiting bij Badhoevedorp","road":"A9","roadType":"A","gemeente":"Haarlemmermeer","woonplaats":"Badhoevedorp","prov":"Noord-Holland","start":"2026-09-11T20:00Z","end":"2026-09-13T16:00Z","closed":true,"hind":"A","prob":"certain","src":"Rijkswaterstaat West-Nederland Noord"}},{"type":"Feature","id":"NDW03_2200003","geometry":{"type":"Point","coordinates":[5.47512,51.44014]},"properties":{"id":"NDW03_2200003","cat":"evenement","sub":"marathon","sev":2,"title":"Marathon Eindhoven","roadType":"lokaal","gemeente":"Eindhoven","woonplaats":"Eindhoven","prov":"Noord-Brabant","start":"2026-09-18T17:00Z","end":"2026-09-19T01:00Z","closed":true,"hind":"B","prob":"certain","src":"Gemeente Eindhoven"}}]}